*******************************************************************************
 Revised: January 26, 2022             Saturn                               699
 
 PHYSICAL DATA:
  Mass x10^26 (kg)      = 5.6834          Density (g/cm^3)       =  0.687+-.001
  Equat. radius (1 bar) = 60268+-4 km     Polar radius (km)      = 54364+-10
  Vol. Mean Radius (km) = 58232+-6        Flattening             =  0.09796
  Geometric Albedo      = 0.47            Rocky core mass (Mc/M) =  0.1027
  Sid. rot. period (III)= 10h 39m 22.4s   Sid. rot. rate (rad/s) =  0.000163785 
  Mean solar day, hrs   =~10.656         
  GM (km^3/s^2)         = 37931206.234    GM 1-sigma (km^3/s^2)  = +- 98
  Equ. grav, ge (m/s^2) = 10.44           Pol. grav, gp (m/s^2)  = 12.14+-0.01
  Vis. magnitude V(1,0) = -8.88          
  Vis. mag. (opposition)= +0.67           Obliquity to orbit     = 26.73 deg
  Sidereal orbit period = 29.447498 yr    Sidereal orbit period  = 10755.698 d
  Mean daily motion     = 0.0334979 deg/d Mean orbit velocity    =  9.68 km/s
  Atmos. temp. (1 bar)  = 134+-4 K        Escape speed, km/s    =  35.5          
  Aroche(ice)/Rp        =  2.71           Hill's sphere rad. Rp  = 1100
                                 Perihelion  Aphelion    Mean
  Solar Constant (W/m^2)         16.8        13.6        15.1
  Maximum Planetary IR (W/m^2)    4.7         4.5         4.6
  Minimum Planetary IR (W/m^2)    4.7         4.5         4.6
*******************************************************************************


*******************************************************************************
Ephemeris / WWW_USER Sun Sep 14 13:04:35 2025 Pasadena, USA      / Horizons
*******************************************************************************
Target body name: Saturn (699)                    {source: sat441l}
Center body name: Solar System Barycenter (0)     {source: DE441}
Center-site name: BODY CENTER
*******************************************************************************
Start time      : A.D. 2000-Jan-01 00:00:00.0000 TDB
Stop  time      : A.D. 2100-Jan-01 00:00:00.0000 TDB
Step-size       : 14400 minutes
*******************************************************************************
Center geodetic : 0.0, 0.0, 0.0                   {E-lon(deg),Lat(deg),Alt(km)}
Center cylindric: 0.0, 0.0, 0.0                   {E-lon(deg),Dxy(km),Dz(km)}
Center radii    : (undefined)
Output units    : AU-D
Calendar mode   : Mixed Julian/Gregorian
Output type     : GEOMETRIC cartesian states
Output format   : 3 (position, velocity, LT, range, range-rate)
Reference frame : Ecliptic of J2000.0
*******************************************************************************
            JDTDB,            Calendar Date (TDB),                      X,                      Y,                      Z,                     VX,                     VY,                     VZ,                     LT,                     RG,                     RR,
**************************************************************************************************************************************************************************************************************************************************************************
$$SOE
2474544.500000000, A.D. 2062-Dec-21 00:00:00.0000, -1.701742883432293E+00,  8.865606836556143E+00, -8.539783516735955E-02, -5.776870291562495E-03, -1.064231164519735E-03,  2.488677039352230E-04,  5.214055494039631E-02,  9.027857232585966E+00,  4.147607195481210E-05,
2474554.500000000, A.D. 2062-Dec-31 00:00:00.0000, -1.759467788795342E+00,  8.854783909327333E+00, -8.290714472447008E-02, -5.768752477933438E-03, -1.099322795636348E-03,  2.488120344749051E-04,  5.214298346865055E-02,  9.028277719218488E+00,  4.375586146485030E-05,
2474564.500000000, A.D. 2063-Jan-10 00:00:00.0000, -1.817127371584311E+00,  8.843608562744684E+00, -8.041444762489523E-02, -5.761886310155923E-03, -1.136103181189081E-03,  2.497878312432724E-04,  5.214555256311887E-02,  9.028722544136508E+00,  4.460685909600071E-05,
2474574.500000000, A.D. 2063-Jan-20 00:00:00.0000, -1.874707583860203E+00,  8.832078300690430E+00, -7.791949779386130E-02, -5.755176781673671E-03, -1.170518014336136E-03,  2.496043645062984E-04,  5.214823158289957E-02,  9.029186402032364E+00,  4.781358343069392E-05,
2474584.500000000, A.D. 2063-Jan-30 00:00:00.0000, -1.932216386042293E+00,  8.820188471297456E+00, -7.541870134079606E-02, -5.746235062217354E-03, -1.206292690093057E-03,  2.499335063546152E-04,  5.215100302585255E-02,  9.029666262504437E+00,  4.921455496893139E-05,
2474594.500000000, A.D. 2063-Feb-09 00:00:00.0000, -1.989648936147654E+00,  8.807949945436773E+00, -7.291771149184456E-02, -5.739575181366633E-03, -1.242367327164982E-03,  2.506903467506926E-04,  5.215392257043588E-02,  9.030171765978892E+00,  5.080198555918368E-05,
2474604.500000000, A.D. 2063-Feb-19 00:00:00.0000, -2.046996265006042E+00,  8.795354005306280E+00, -7.041253242559467E-02, -5.731160650011440E-03, -1.276565247135406E-03,  2.503500653019617E-04,  5.215692901856528E-02,  9.030692316335914E+00,  5.383788818997945E-05,
2474614.500000000, A.D. 2063-Mar-01 00:00:00.0000, -2.104267852959779E+00,  8.782403824011242E+00, -6.790340594078420E-02, -5.722014087520952E-03, -1.312889005841739E-03,  2.510687331301388E-04,  5.216005222573023E-02,  9.031233082893255E+00,  5.461939100831112E-05,
2474624.500000000, A.D. 2063-Mar-11 00:00:00.0000, -2.161451653863914E+00,  8.769105765832430E+00, -6.539439046538084E-02, -5.714884679498911E-03, -1.347815316093346E-03,  2.513163207322712E-04,  5.216331187668894E-02,  9.031797473961147E+00,  5.722860885609152E-05,
2474634.500000000, A.D. 2063-Mar-21 00:00:00.0000, -2.218547422021159E+00,  8.755449805715976E+00, -6.287993379809947E-02, -5.705022668994614E-03, -1.382357487550945E-03,  2.511347205428396E-04,  5.216665049319508E-02,  9.032375537489743E+00,  5.955359165786938E-05,
2474644.500000000, A.D. 2063-Mar-31 00:00:00.0000, -2.275559915494072E+00,  8.741445421390630E+00, -6.036398299679901E-02, -5.696189337316738E-03, -1.418751541760371E-03,  2.520520219368704E-04,  5.217012786731236E-02,  9.032977626153949E+00,  6.031965502787426E-05,
2474654.500000000, A.D. 2063-Apr-10 00:00:00.0000, -2.332474835153387E+00,  8.727091347194728E+00, -5.784688637661128E-02, -5.687767892433911E-03, -1.452752059051238E-03,  2.518272905560909E-04,  5.217371585882072E-02,  9.033598867625702E+00,  6.350825810108009E-05,
2474664.500000000, A.D. 2063-Apr-20 00:00:00.0000, -2.389299462983081E+00,  8.712382084107572E+00, -5.532462077383737E-02, -5.676939340971015E-03, -1.487926148097539E-03,  2.520089950512349E-04,  5.217739377881780E-02,  9.034235679732603E+00,  6.492908999955783E-05,
2474674.500000000, A.D. 2063-Apr-30 00:00:00.0000, -2.446030254322858E+00,  8.697328913884530E+00, -5.280285769598166E-02, -5.668368773925510E-03, -1.523613864411081E-03,  2.527309685812159E-04,  5.218121918554409E-02,  9.034898028375055E+00,  6.644078083541195E-05,
2474684.500000000, A.D. 2063-May-10 00:00:00.0000, -2.502657243839483E+00,  8.681923886627050E+00, -5.027803549418247E-02, -5.658310880110130E-03, -1.557227620304293E-03,  2.522866803390998E-04,  5.218513158952084E-02,  9.035575440124482E+00,  6.954693299430641E-05,
2474694.500000000, A.D. 2063-May-20 00:00:00.0000, -2.559190199793631E+00,  8.666169141265799E+00, -4.774977453257644E-02, -5.647253067908211E-03, -1.592991767269562E-03,  2.528948709909762E-04,  5.218915792235625E-02,  9.036272578044294E+00,  7.029258278643818E-05,
2474704.500000000, A.D. 2063-May-30 00:00:00.0000, -2.615617862162316E+00,  8.650072093378212E+00, -4.522253247442908E-02, -5.638318281352125E-03, -1.627572337269325E-03,  2.531588989746980E-04,  5.219332084698861E-02,  9.036993366100612E+00,  7.276971903398634E-05,
2474714.500000000, A.D. 2063-Jun-09 00:00:00.0000, -2.671938671545786E+00,  8.633622665597969E+00, -4.269080275115221E-02, -5.626684396396021E-03, -1.661409130397765E-03,  2.528165555086725E-04,  5.219756108621044E-02,  9.037727540763131E+00,  7.517190151092073E-05,
2474724.500000000, A.D. 2063-Jun-19 00:00:00.0000, -2.728158492829673E+00,  8.616829834838295E+00, -4.015810387019427E-02, -5.615916992551017E-03, -1.697226270834031E-03,  2.536289494050005E-04,  5.220193796016413E-02,  9.038485372996101E+00,  7.592161576274741E-05,
2474734.500000000, A.D. 2063-Jun-29 00:00:00.0000, -2.784263009119814E+00,  8.599693607345042E+00, -3.762537831030328E-02, -5.605893365822542E-03, -1.730768221365971E-03,  2.534008022872954E-04,  5.220642619773586E-02,  9.039262487241816E+00,  7.906295700688907E-05,
2474744.500000000, A.D. 2063-Jul-09 00:00:00.0000, -2.840258667244676E+00,  8.582207614474063E+00, -3.508817894597405E-02, -5.593226097742989E-03, -1.765250306044076E-03,  2.534412157615228E-04,  5.221100132913602E-02,  9.040054646687532E+00,  8.048308574386495E-05,
2474754.500000000, A.D. 2063-Jul-19 00:00:00.0000, -2.896143232055898E+00,  8.564383409706549E+00, -3.255212499985807E-02, -5.582709908901855E-03, -1.800450346331755E-03,  2.541217265699843E-04,  5.221572258447942E-02,  9.040872106709728E+00,  8.188460495038996E-05,
2474764.500000000, A.D. 2063-Jul-29 00:00:00.0000, -2.951905814435396E+00,  8.546213977599630E+00, -3.001416947406374E-02, -5.571055164569685E-03, -1.833410562712907E-03,  2.535916782844397E-04,  5.222053068547403E-02,  9.041704603590299E+00,  8.503925368046163E-05,
2474774.500000000, A.D. 2063-Aug-08 00:00:00.0000, -3.007556323509642E+00,  8.527700398875643E+00, -2.747331622955199E-02, -5.558119029996926E-03, -1.868443421726295E-03,  2.540513618517187E-04,  5.222544950652077E-02,  9.042556271053627E+00,  8.579992936682445E-05,
2474784.500000000, A.D. 2063-Aug-18 00:00:00.0000, -3.063084488671869E+00,  8.508851061315358E+00, -2.493436440394591E-02, -5.547419906772515E-03, -1.902558700171758E-03,  2.543211034939997E-04,  5.223050485302952E-02,  9.043431577167924E+00,  8.816187876690420E-05,
